[{"OBJECT_NAME":"KUIPER-00259","OBJECT_ID":"2026-030Y","EPOCH":"2026-03-03T14:06:21.461760","MEAN_MOTION":15.34786214,"ECCENTRICITY":0.00080402,"INCLINATION":51.8802,"RA_OF_ASC_NODE":248.668,"ARG_OF_PERICENTER":32.6457,"MEAN_ANOMALY":327.5024,"EPHEMERIS_TYPE":0,"CLASSIFICATION_TYPE":"U","NORAD_CAT_ID":67786,"ELEMENT_SET_NO":999,"REV_AT_EPOCH":415,"BSTAR":0.0010383981,"MEAN_MOTION_DOT":0.0003537,"MEAN_MOTION_DDOT":0},{"OBJECT_NAME":"KUIPER-00260","OBJECT_ID":"2026-030Z","EPOCH":"2026-03-03T13:41:52.374048","MEAN_MOTION":15.36166005,"ECCENTRICITY":8.753e-5,"INCLINATION":51.8793,"RA_OF_ASC_NODE":248.5575,"ARG_OF_PERICENTER":69.7544,"MEAN_ANOMALY":290.3536,"EPHEMERIS_TYPE":0,"CLASSIFICATION_TYPE":"U","NORAD_CAT_ID":67787,"ELEMENT_SET_NO":999,"REV_AT_EPOCH":406,"BSTAR":0.0010398064,"MEAN_MOTION_DOT":0.00037005,"MEAN_MOTION_DDOT":0},{"OBJECT_NAME":"KUIPER-00262","OBJECT_ID":"2026-030AA","EPOCH":"2026-03-03T13:37:20.766144","MEAN_MOTION":15.36478514,"ECCENTRICITY":4.907e-5,"INCLINATION":51.881,"RA_OF_ASC_NODE":248.5405,"ARG_OF_PERICENTER":144.9331,"MEAN_ANOMALY":215.1688,"EPHEMERIS_TYPE":0,"CLASSIFICATION_TYPE":"U","NORAD_CAT_ID":67788,"ELEMENT_SET_NO":999,"REV_AT_EPOCH":415,"BSTAR":0.0010524729,"MEAN_MOTION_DOT":0.00037846,"MEAN_MOTION_DDOT":0},{"OBJECT_NAME":"KUIPER-00266","OBJECT_ID":"2026-030AB","EPOCH":"2026-03-03T15:00:30.817152","MEAN_MOTION":15.30981659,"ECCENTRICITY":0.00224788,"INCLINATION":51.8809,"RA_OF_ASC_NODE":248.9059,"ARG_OF_PERICENTER":55.2687,"MEAN_ANOMALY":305.041,"EPHEMERIS_TYPE":0,"CLASSIFICATION_TYPE":"U","NORAD_CAT_ID":67789,"ELEMENT_SET_NO":999,"REV_AT_EPOCH":415,"BSTAR":0.00035847297,"MEAN_MOTION_DOT":0.0001061,"MEAN_MOTION_DDOT":0},{"OBJECT_NAME":"KUIPER-00268","OBJECT_ID":"2026-030AC","EPOCH":"2026-03-03T13:48:29.809728","MEAN_MOTION":15.35710905,"ECCENTRICITY":0.00021985,"INCLINATION":51.8843,"RA_OF_ASC_NODE":248.5954,"ARG_OF_PERICENTER":33.8026,"MEAN_ANOMALY":326.31,"EPHEMERIS_TYPE":0,"CLASSIFICATION_TYPE":"U","NORAD_CAT_ID":67790,"ELEMENT_SET_NO":999,"REV_AT_EPOCH":415,"BSTAR":0.00094600384,"MEAN_MOTION_DOT":0.00033124,"MEAN_MOTION_DDOT":0},{"OBJECT_NAME":"KUIPER-00270","OBJECT_ID":"2026-030AD","EPOCH":"2026-03-03T14:13:25.401504","MEAN_MOTION":15.34359346,"ECCENTRICITY":0.00099595,"INCLINATION":51.8798,"RA_OF_ASC_NODE":248.6986,"ARG_OF_PERICENTER":39.4838,"MEAN_ANOMALY":320.6871,"EPHEMERIS_TYPE":0,"CLASSIFICATION_TYPE":"U","NORAD_CAT_ID":67791,"ELEMENT_SET_NO":999,"REV_AT_EPOCH":415,"BSTAR":0.00079162746,"MEAN_MOTION_DOT":0.00026489,"MEAN_MOTION_DDOT":0},{"OBJECT_NAME":"KUIPER-00274","OBJECT_ID":"2026-030AE","EPOCH":"2026-03-03T14:45:56.070720","MEAN_MOTION":15.31594334,"ECCENTRICITY":0.00174778,"INCLINATION":51.8814,"RA_OF_ASC_NODE":248.8484,"ARG_OF_PERICENTER":52.314,"MEAN_ANOMALY":307.9426,"EPHEMERIS_TYPE":0,"CLASSIFICATION_TYPE":"U","NORAD_CAT_ID":67792,"ELEMENT_SET_NO":999,"REV_AT_EPOCH":415,"BSTAR":-0.0004544557,"MEAN_MOTION_DOT":-0.00014488,"MEAN_MOTION_DDOT":0},{"OBJECT_NAME":"KUIPER-00275","OBJECT_ID":"2026-030AF","EPOCH":"2026-03-03T14:09:47.043648","MEAN_MOTION":15.34439442,"ECCENTRICITY":0.00089032,"INCLINATION":51.8832,"RA_OF_ASC_NODE":248.6913,"ARG_OF_PERICENTER":35.8247,"MEAN_ANOMALY":324.3335,"EPHEMERIS_TYPE":0,"CLASSIFICATION_TYPE":"U","NORAD_CAT_ID":67793,"ELEMENT_SET_NO":999,"REV_AT_EPOCH":415,"BSTAR":0.0010086333,"MEAN_MOTION_DOT":0.00033966,"MEAN_MOTION_DDOT":0},{"OBJECT_NAME":"KUIPER-00276","OBJECT_ID":"2026-030AG","EPOCH":"2026-03-03T14:51:32.659200","MEAN_MOTION":15.31399109,"ECCENTRICITY":0.00186113,"INCLINATION":51.8812,"RA_OF_ASC_NODE":248.8714,"ARG_OF_PERICENTER":49.5103,"MEAN_ANOMALY":310.7499,"EPHEMERIS_TYPE":0,"CLASSIFICATION_TYPE":"U","NORAD_CAT_ID":67794,"ELEMENT_SET_NO":999,"REV_AT_EPOCH":415,"BSTAR":-0.0010721152,"MEAN_MOTION_DOT":-0.00033404,"MEAN_MOTION_DDOT":0},{"OBJECT_NAME":"KUIPER-00279","OBJECT_ID":"2026-030AH","EPOCH":"2026-03-03T14:01:11.028288","MEAN_MOTION":15.35091276,"ECCENTRICITY":0.00062987,"INCLINATION":51.8796,"RA_OF_ASC_NODE":248.6432,"ARG_OF_PERICENTER":31.2395,"MEAN_ANOMALY":328.8964,"EPHEMERIS_TYPE":0,"CLASSIFICATION_TYPE":"U","NORAD_CAT_ID":67795,"ELEMENT_SET_NO":999,"REV_AT_EPOCH":415,"BSTAR":0.0010598863,"MEAN_MOTION_DOT":0.00036457,"MEAN_MOTION_DDOT":0},{"OBJECT_NAME":"CREW DRAGON 12","OBJECT_ID":"2026-031A","EPOCH":"2026-03-03T12:16:25.462848","MEAN_MOTION":15.48420284,"ECCENTRICITY":0.00082167,"INCLINATION":51.6317,"RA_OF_ASC_NODE":102.901,"ARG_OF_PERICENTER":152.7563,"MEAN_ANOMALY":207.3857,"EPHEMERIS_TYPE":0,"CLASSIFICATION_TYPE":"U","NORAD_CAT_ID":67796,"ELEMENT_SET_NO":999,"REV_AT_EPOCH":55511,"BSTAR":0.00019150871,"MEAN_MOTION_DOT":9.912e-5,"MEAN_MOTION_DDOT":0},{"OBJECT_NAME":"STARLINK-36800","OBJECT_ID":"2026-032A","EPOCH":"2026-03-03T14:00:03.000384","MEAN_MOTION":15.75215404,"ECCENTRICITY":0.00013028,"INCLINATION":97.2836,"RA_OF_ASC_NODE":248.7659,"ARG_OF_PERICENTER":90.4925,"MEAN_ANOMALY":204.428,"EPHEMERIS_TYPE":0,"CLASSIFICATION_TYPE":"U","NORAD_CAT_ID":67797,"ELEMENT_SET_NO":999,"REV_AT_EPOCH":379,"BSTAR":-0.00043264911,"MEAN_MOTION_DOT":-0.00064249,"MEAN_MOTION_DDOT":0},{"OBJECT_NAME":"STARLINK-36798","OBJECT_ID":"2026-032B","EPOCH":"2026-03-03T10:54:04.474080","MEAN_MOTION":15.80973994,"ECCENTRICITY":0.00015381,"INCLINATION":97.2839,"RA_OF_ASC_NODE":248.6624,"ARG_OF_PERICENTER":84.4341,"MEAN_ANOMALY":275.7103,"EPHEMERIS_TYPE":0,"CLASSIFICATION_TYPE":"U","NORAD_CAT_ID":67798,"ELEMENT_SET_NO":999,"REV_AT_EPOCH":380,"BSTAR":0.0018391501,"MEAN_MOTION_DOT":0.0037017,"MEAN_MOTION_DDOT":0},{"OBJECT_NAME":"STARLINK-36804","OBJECT_ID":"2026-032C","EPOCH":"2026-03-03T14:00:03.000384","MEAN_MOTION":15.7520564,"ECCENTRICITY":0.00014892,"INCLINATION":97.2837,"RA_OF_ASC_NODE":248.7701,"ARG_OF_PERICENTER":82.557,"MEAN_ANOMALY":222.3495,"EPHEMERIS_TYPE":0,"CLASSIFICATION_TYPE":"U","NORAD_CAT_ID":67799,"ELEMENT_SET_NO":999,"REV_AT_EPOCH":373,"BSTAR":-0.00027887947,"MEAN_MOTION_DOT":-0.00041553,"MEAN_MOTION_DDOT":0},{"OBJECT_NAME":"STARLINK-36354","OBJECT_ID":"2026-032D","EPOCH":"2026-03-03T14:00:03.000384","MEAN_MOTION":15.75199125,"ECCENTRICITY":0.00014599,"INCLINATION":97.2843,"RA_OF_ASC_NODE":248.7974,"ARG_OF_PERICENTER":85.6624,"MEAN_ANOMALY":281.2337,"EPHEMERIS_TYPE":0,"CLASSIFICATION_TYPE":"U","NORAD_CAT_ID":67800,"ELEMENT_SET_NO":999,"REV_AT_EPOCH":379,"BSTAR":-0.00038301954,"MEAN_MOTION_DOT":-0.00056904,"MEAN_MOTION_DDOT":0},{"OBJECT_NAME":"STARLINK-36773","OBJECT_ID":"2026-032E","EPOCH":"2026-03-03T14:00:03.000384","MEAN_MOTION":15.75221017,"ECCENTRICITY":0.00014585,"INCLINATION":97.2837,"RA_OF_ASC_NODE":248.7778,"ARG_OF_PERICENTER":87.1445,"MEAN_ANOMALY":235.7596,"EPHEMERIS_TYPE":0,"CLASSIFICATION_TYPE":"U","NORAD_CAT_ID":67801,"ELEMENT_SET_NO":999,"REV_AT_EPOCH":373,"BSTAR":-0.00035652027,"MEAN_MOTION_DOT":-0.0005305,"MEAN_MOTION_DDOT":0}]
